{
  "type": "FeatureCollection",
  "name": "28217_兵庫県川西市",
  "features": [
    {
      "type": "Feature",
      "geometry": {
        "type": "Point",
        "coordinates": [
          135.380323,
          34.861148
        ]
      },
      "properties": {
        "NO": "1",
        "共通ID": "E2821700002111",
        "施設・場所名": "けやき坂公民館",
        "住所": "兵庫県川西市けやき坂2-63-1",
        "指定緊急避難場所との住所同一": "",
        "その他市町村長が必要と認める事項": null,
        "受入対象者": null,
        "備考": ""
      }
    },
    {
      "type": "Feature",
      "geometry": {
        "type": "Point",
        "coordinates": [
          135.378317,
          34.862022
        ]
      },
      "properties": {
        "NO": "2",
        "共通ID": "E2821700003111",
        "施設・場所名": "けやき坂小学校",
        "住所": "兵庫県川西市けやき坂3-1-2",
        "指定緊急避難場所との住所同一": "1",
        "その他市町村長が必要と認める事項": null,
        "受入対象者": null,
        "備考": ""
      }
    },
    {
      "type": "Feature",
      "geometry": {
        "type": "Point",
        "coordinates": [
          135.402953,
          34.900676
        ]
      },
      "properties": {
        "NO": "3",
        "共通ID": "E2821700004121",
        "施設・場所名": "やわらぎの里　東谷",
        "住所": "兵庫県川西市一庫字北中島1-1",
        "指定緊急避難場所との住所同一": "",
        "その他市町村長が必要と認める事項": null,
        "受入対象者": "高齢者とその家族",
        "備考": ""
      }
    },
    {
      "type": "Feature",
      "geometry": {
        "type": "Point",
        "coordinates": [
          135.414708,
          34.822901
        ]
      },
      "properties": {
        "NO": "4",
        "共通ID": "E2821700005111",
        "施設・場所名": "川西小学校",
        "住所": "兵庫県川西市栄根1-1-1",
        "指定緊急避難場所との住所同一": "1",
        "その他市町村長が必要と認める事項": null,
        "受入対象者": null,
        "備考": ""
      }
    },
    {
      "type": "Feature",
      "geometry": {
        "type": "Point",
        "coordinates": [
          135.415139,
          34.823298
        ]
      },
      "properties": {
        "NO": "5",
        "共通ID": "E2821700005121",
        "施設・場所名": "川西こども園",
        "住所": "兵庫県川西市栄根1-1-1",
        "指定緊急避難場所との住所同一": "1",
        "その他市町村長が必要と認める事項": "",
        "受入対象者": "妊婦、乳幼児とその家族",
        "備考": ""
      }
    },
    {
      "type": "Feature",
      "geometry": {
        "type": "Point",
        "coordinates": [
          135.403602,
          34.813332
        ]
      },
      "properties": {
        "NO": "6",
        "共通ID": "E2821700011121",
        "施設・場所名": "加茂こども園",
        "住所": "兵庫県川西市加茂3-13-22",
        "指定緊急避難場所との住所同一": "",
        "その他市町村長が必要と認める事項": "",
        "受入対象者": "妊婦、乳幼児とその家族",
        "備考": ""
      }
    },
    {
      "type": "Feature",
      "geometry": {
        "type": "Point",
        "coordinates": [
          135.403533,
          34.813088
        ]
      },
      "properties": {
        "NO": "7",
        "共通ID": "E2821700012111",
        "施設・場所名": "加茂ふれあい会館",
        "住所": "兵庫県川西市加茂3-13-23",
        "指定緊急避難場所との住所同一": "",
        "その他市町村長が必要と認める事項": null,
        "受入対象者": null,
        "備考": ""
      }
    },
    {
      "type": "Feature",
      "geometry": {
        "type": "Point",
        "coordinates": [
          135.402562,
          34.812994
        ]
      },
      "properties": {
        "NO": "8",
        "共通ID": "E2821700013121",
        "施設・場所名": "総合福祉施設　ハピネス川西",
        "住所": "兵庫県川西市加茂3-13-26",
        "指定緊急避難場所との住所同一": "",
        "その他市町村長が必要と認める事項": "",
        "受入対象者": "高齢者、障がい者とその家族",
        "備考": ""
      }
    },
    {
      "type": "Feature",
      "geometry": {
        "type": "Point",
        "coordinates": [
          135.401876,
          34.812505
        ]
      },
      "properties": {
        "NO": "9",
        "共通ID": "E2821700014111",
        "施設・場所名": "加茂小学校",
        "住所": "兵庫県川西市加茂3-14-1",
        "指定緊急避難場所との住所同一": "1",
        "その他市町村長が必要と認める事項": null,
        "受入対象者": null,
        "備考": ""
      }
    },
    {
      "type": "Feature",
      "geometry": {
        "type": "Point",
        "coordinates": [
          135.418308,
          34.834112
        ]
      },
      "properties": {
        "NO": "10",
        "共通ID": "E2821700018111",
        "施設・場所名": "総合体育館",
        "住所": "兵庫県川西市火打1-1-4",
        "指定緊急避難場所との住所同一": "1",
        "その他市町村長が必要と認める事項": null,
        "受入対象者": null,
        "備考": ""
      }
    },
    {
      "type": "Feature",
      "geometry": {
        "type": "Point",
        "coordinates": [
          135.418963,
          34.834564
        ]
      },
      "properties": {
        "NO": "11",
        "共通ID": "E2821700017111",
        "施設・場所名": "キセラ川西プラザ",
        "住所": "兵庫県川西市火打1-12-16",
        "指定緊急避難場所との住所同一": "",
        "その他市町村長が必要と認める事項": null,
        "受入対象者": null,
        "備考": ""
      }
    },
    {
      "type": "Feature",
      "geometry": {
        "type": "Point",
        "coordinates": [
          135.418488,
          34.839743
        ]
      },
      "properties": {
        "NO": "12",
        "共通ID": "E2821700020121",
        "施設・場所名": "川西北こども園",
        "住所": "兵庫県川西市丸の内町7-1",
        "指定緊急避難場所との住所同一": "1",
        "その他市町村長が必要と認める事項": null,
        "受入対象者": "妊婦、乳幼児とその家族",
        "備考": ""
      }
    },
    {
      "type": "Feature",
      "geometry": {
        "type": "Point",
        "coordinates": [
          135.41935,
          34.84031
        ]
      },
      "properties": {
        "NO": "13",
        "共通ID": "E2821700020111",
        "施設・場所名": "川西北小学校",
        "住所": "兵庫県川西市丸の内町7-1",
        "指定緊急避難場所との住所同一": "1",
        "その他市町村長が必要と認める事項": null,
        "受入対象者": null,
        "備考": ""
      }
    },
    {
      "type": "Feature",
      "geometry": {
        "type": "Point",
        "coordinates": [
          135.407448,
          34.908166
        ]
      },
      "properties": {
        "NO": "14",
        "共通ID": "E2821700021111",
        "施設・場所名": "北陵小学校",
        "住所": "兵庫県川西市丸山台1-3-2",
        "指定緊急避難場所との住所同一": "1",
        "その他市町村長が必要と認める事項": null,
        "受入対象者": null,
        "備考": ""
      }
    },
    {
      "type": "Feature",
      "geometry": {
        "type": "Point",
        "coordinates": [
          135.396885,
          34.905485
        ]
      },
      "properties": {
        "NO": "15",
        "共通ID": "E2821700022111",
        "施設・場所名": "北陵公民館",
        "住所": "兵庫県川西市丸山台1-5-2",
        "指定緊急避難場所との住所同一": "",
        "その他市町村長が必要と認める事項": null,
        "受入対象者": null,
        "備考": ""
      }
    },
    {
      "type": "Feature",
      "geometry": {
        "type": "Point",
        "coordinates": [
          135.408163,
          34.915445
        ]
      },
      "properties": {
        "NO": "16",
        "共通ID": "E2821700023121",
        "施設・場所名": "老人福祉施設　さぎそう園",
        "住所": "兵庫県川西市丸山台3-5-6",
        "指定緊急避難場所との住所同一": "",
        "その他市町村長が必要と認める事項": null,
        "受入対象者": "高齢者とその家族",
        "備考": ""
      }
    },
    {
      "type": "Feature",
      "geometry": {
        "type": "Point",
        "coordinates": [
          135.409886,
          34.80604
        ]
      },
      "properties": {
        "NO": "17",
        "共通ID": "E2821700024111",
        "施設・場所名": "久代幼稚園",
        "住所": "兵庫県川西市久代2-12-1",
        "指定緊急避難場所との住所同一": "1",
        "その他市町村長が必要と認める事項": null,
        "受入対象者": null,
        "備考": ""
      }
    },
    {
      "type": "Feature",
      "geometry": {
        "type": "Point",
        "coordinates": [
          135.409884,
          34.805468
        ]
      },
      "properties": {
        "NO": "18",
        "共通ID": "E2821700025111",
        "施設・場所名": "久代会館",
        "住所": "兵庫県川西市久代2-12-6",
        "指定緊急避難場所との住所同一": "",
        "その他市町村長が必要と認める事項": null,
        "受入対象者": null,
        "備考": ""
      }
    },
    {
      "type": "Feature",
      "geometry": {
        "type": "Point",
        "coordinates": [
          135.409485,
          34.810407
        ]
      },
      "properties": {
        "NO": "19",
        "共通ID": "E2821700026111",
        "施設・場所名": "北久代会館",
        "住所": "兵庫県川西市久代2-5-6",
        "指定緊急避難場所との住所同一": "",
        "その他市町村長が必要と認める事項": null,
        "受入対象者": null,
        "備考": ""
      }
    },
    {
      "type": "Feature",
      "geometry": {
        "type": "Point",
        "coordinates": [
          135.407454,
          34.808664
        ]
      },
      "properties": {
        "NO": "20",
        "共通ID": "E2821700027111",
        "施設・場所名": "川西南公民館",
        "住所": "兵庫県川西市久代3-16-29",
        "指定緊急避難場所との住所同一": "",
        "その他市町村長が必要と認める事項": null,
        "受入対象者": null,
        "備考": ""
      }
    },
    {
      "type": "Feature",
      "geometry": {
        "type": "Point",
        "coordinates": [
          135.407089,
          34.808842
        ]
      },
      "properties": {
        "NO": "21",
        "共通ID": "E2821700028112",
        "施設・場所名": "久代児童センター",
        "住所": "兵庫県川西市久代3-16-30",
        "指定緊急避難場所との住所同一": "",
        "その他市町村長が必要と認める事項": "",
        "受入対象者": "",
        "備考": ""
      }
    },
    {
      "type": "Feature",
      "geometry": {
        "type": "Point",
        "coordinates": [
          135.408817,
          34.805143
        ]
      },
      "properties": {
        "NO": "22",
        "共通ID": "E2821700029111",
        "施設・場所名": "久代春日会館",
        "住所": "兵庫県川西市久代3-25-9",
        "指定緊急避難場所との住所同一": "",
        "その他市町村長が必要と認める事項": null,
        "受入対象者": null,
        "備考": ""
      }
    },
    {
      "type": "Feature",
      "geometry": {
        "type": "Point",
        "coordinates": [
          135.407967,
          34.805083
        ]
      },
      "properties": {
        "NO": "23",
        "共通ID": "E2821700030111",
        "施設・場所名": "久代小学校",
        "住所": "兵庫県川西市久代3-27-9",
        "指定緊急避難場所との住所同一": "1",
        "その他市町村長が必要と認める事項": null,
        "受入対象者": null,
        "備考": ""
      }
    },
    {
      "type": "Feature",
      "geometry": {
        "type": "Point",
        "coordinates": [
          135.407465,
          34.809511
        ]
      },
      "properties": {
        "NO": "24",
        "共通ID": "E2821700031111",
        "施設・場所名": "川西南中学校",
        "住所": "兵庫県川西市久代3-3-1",
        "指定緊急避難場所との住所同一": "1",
        "その他市町村長が必要と認める事項": null,
        "受入対象者": null,
        "備考": ""
      }
    },
    {
      "type": "Feature",
      "geometry": {
        "type": "Point",
        "coordinates": [
          135.404328,
          34.805001
        ]
      },
      "properties": {
        "NO": "25",
        "共通ID": "E2821700032111",
        "施設・場所名": "西久代会館",
        "住所": "兵庫県川西市久代4-2-7",
        "指定緊急避難場所との住所同一": "",
        "その他市町村長が必要と認める事項": null,
        "受入対象者": null,
        "備考": ""
      }
    },
    {
      "type": "Feature",
      "geometry": {
        "type": "Point",
        "coordinates": [
          135.418462,
          34.802952
        ]
      },
      "properties": {
        "NO": "26",
        "共通ID": "E2821700033121",
        "施設・場所名": "あいな清和苑",
        "住所": "兵庫県川西市久代6-1-98",
        "指定緊急避難場所との住所同一": "",
        "その他市町村長が必要と認める事項": null,
        "受入対象者": "高齢者とその家族",
        "備考": ""
      }
    },
    {
      "type": "Feature",
      "geometry": {
        "type": "Point",
        "coordinates": [
          135.412984,
          34.891829
        ]
      },
      "properties": {
        "NO": "27",
        "共通ID": "E2821700034111",
        "施設・場所名": "東谷中学校",
        "住所": "兵庫県川西市見野1-9-1",
        "指定緊急避難場所との住所同一": "1",
        "その他市町村長が必要と認める事項": null,
        "受入対象者": null,
        "備考": ""
      }
    },
    {
      "type": "Feature",
      "geometry": {
        "type": "Point",
        "coordinates": [
          135.409228,
          34.89324
        ]
      },
      "properties": {
        "NO": "28",
        "共通ID": "E2821700035111",
        "施設・場所名": "東谷公民館",
        "住所": "兵庫県川西市見野2-21-11",
        "指定緊急避難場所との住所同一": "",
        "その他市町村長が必要と認める事項": null,
        "受入対象者": null,
        "備考": ""
      }
    },
    {
      "type": "Feature",
      "geometry": {
        "type": "Point",
        "coordinates": [
          135.408673,
          34.893572
        ]
      },
      "properties": {
        "NO": "29",
        "共通ID": "E2821700037111",
        "施設・場所名": "東谷小学校",
        "住所": "兵庫県川西市見野2-30-1",
        "指定緊急避難場所との住所同一": "1",
        "その他市町村長が必要と認める事項": null,
        "受入対象者": null,
        "備考": ""
      }
    },
    {
      "type": "Feature",
      "geometry": {
        "type": "Point",
        "coordinates": [
          135.411609,
          34.874323
        ]
      },
      "properties": {
        "NO": "30",
        "共通ID": "E2821700039111",
        "施設・場所名": "市民体育館",
        "住所": "兵庫県川西市向陽台1-11-1",
        "指定緊急避難場所との住所同一": "",
        "その他市町村長が必要と認める事項": null,
        "受入対象者": null,
        "備考": ""
      }
    },
    {
      "type": "Feature",
      "geometry": {
        "type": "Point",
        "coordinates": [
          135.410537,
          34.871547
        ]
      },
      "properties": {
        "NO": "31",
        "共通ID": "E2821700040111",
        "施設・場所名": "緑台公民館",
        "住所": "兵庫県川西市向陽台1-6-38",
        "指定緊急避難場所との住所同一": "",
        "その他市町村長が必要と認める事項": null,
        "受入対象者": null,
        "備考": ""
      }
    },
    {
      "type": "Feature",
      "geometry": {
        "type": "Point",
        "coordinates": [
          135.409982,
          34.873949
        ]
      },
      "properties": {
        "NO": "32",
        "共通ID": "E2821700041111",
        "施設・場所名": "緑台小学校",
        "住所": "兵庫県川西市向陽台1-7-1",
        "指定緊急避難場所との住所同一": "1",
        "その他市町村長が必要と認める事項": null,
        "受入対象者": null,
        "備考": ""
      }
    },
    {
      "type": "Feature",
      "geometry": {
        "type": "Point",
        "coordinates": [
          135.409907,
          34.87535
        ]
      },
      "properties": {
        "NO": "33",
        "共通ID": "E2821700042111",
        "施設・場所名": "川西緑台高等学校",
        "住所": "兵庫県川西市向陽台1-8",
        "指定緊急避難場所との住所同一": "",
        "その他市町村長が必要と認める事項": null,
        "受入対象者": null,
        "備考": ""
      }
    },
    {
      "type": "Feature",
      "geometry": {
        "type": "Point",
        "coordinates": [
          135.402477,
          34.881002
        ]
      },
      "properties": {
        "NO": "34",
        "共通ID": "E2821700043111",
        "施設・場所名": "緑台中学校",
        "住所": "兵庫県川西市向陽台3-11-35",
        "指定緊急避難場所との住所同一": "1",
        "その他市町村長が必要と認める事項": null,
        "受入対象者": null,
        "備考": ""
      }
    },
    {
      "type": "Feature",
      "geometry": {
        "type": "Point",
        "coordinates": [
          135.402295,
          34.878831
        ]
      },
      "properties": {
        "NO": "35",
        "共通ID": "E2821700044111",
        "施設・場所名": "陽明小学校",
        "住所": "兵庫県川西市向陽台3-6-219",
        "指定緊急避難場所との住所同一": "1",
        "その他市町村長が必要と認める事項": null,
        "受入対象者": null,
        "備考": ""
      }
    },
    {
      "type": "Feature",
      "geometry": {
        "type": "Point",
        "coordinates": [
          135.421495,
          34.931855
        ]
      },
      "properties": {
        "NO": "36",
        "共通ID": "E2821700045111",
        "施設・場所名": "国崎クリーンセンター",
        "住所": "兵庫県川西市国崎字小路13",
        "指定緊急避難場所との住所同一": "",
        "その他市町村長が必要と認める事項": null,
        "受入対象者": null,
        "備考": ""
      }
    },
    {
      "type": "Feature",
      "geometry": {
        "type": "Point",
        "coordinates": [
          135.440925,
          34.926523
        ]
      },
      "properties": {
        "NO": "37",
        "共通ID": "E2821700097111",
        "施設・場所名": "黒川里山センター",
        "住所": "兵庫県川西市黒川字中尾264",
        "指定緊急避難場所との住所同一": "",
        "その他市町村長が必要と認める事項": "",
        "受入対象者": "",
        "備考": ""
      }
    },
    {
      "type": "Feature",
      "geometry": {
        "type": "Point",
        "coordinates": [
          135.411257,
          34.836141
        ]
      },
      "properties": {
        "NO": "38",
        "共通ID": "E2821700052111",
        "施設・場所名": "川西中学校",
        "住所": "兵庫県川西市松が丘町1-1",
        "指定緊急避難場所との住所同一": "1",
        "その他市町村長が必要と認める事項": null,
        "受入対象者": null,
        "備考": ""
      }
    },
    {
      "type": "Feature",
      "geometry": {
        "type": "Point",
        "coordinates": [
          135.40627,
          34.865328
        ]
      },
      "properties": {
        "NO": "39",
        "共通ID": "E2821700053111",
        "施設・場所名": "多田中学校",
        "住所": "兵庫県川西市新田2-29-1",
        "指定緊急避難場所との住所同一": "1",
        "その他市町村長が必要と認める事項": null,
        "受入対象者": null,
        "備考": ""
      }
    },
    {
      "type": "Feature",
      "geometry": {
        "type": "Point",
        "coordinates": [
          135.382515,
          34.871768
        ]
      },
      "properties": {
        "NO": "40",
        "共通ID": "E2821700055111",
        "施設・場所名": "清和台中学校",
        "住所": "兵庫県川西市清和台西2-3-57",
        "指定緊急避難場所との住所同一": "1",
        "その他市町村長が必要と認める事項": null,
        "受入対象者": null,
        "備考": ""
      }
    },
    {
      "type": "Feature",
      "geometry": {
        "type": "Point",
        "coordinates": [
          135.387347,
          34.872336
        ]
      },
      "properties": {
        "NO": "41",
        "共通ID": "E2821700056111",
        "施設・場所名": "清和台公民館",
        "住所": "兵庫県川西市清和台西3-1-7",
        "指定緊急避難場所との住所同一": "",
        "その他市町村長が必要と認める事項": null,
        "受入対象者": null,
        "備考": ""
      }
    },
    {
      "type": "Feature",
      "geometry": {
        "type": "Point",
        "coordinates": [
          135.387462,
          34.869287
        ]
      },
      "properties": {
        "NO": "42",
        "共通ID": "E2821700057111",
        "施設・場所名": "清和台南小学校",
        "住所": "兵庫県川西市清和台西5-1-2",
        "指定緊急避難場所との住所同一": "1",
        "その他市町村長が必要と認める事項": null,
        "受入対象者": null,
        "備考": ""
      }
    },
    {
      "type": "Feature",
      "geometry": {
        "type": "Point",
        "coordinates": [
          135.388074,
          34.877373
        ]
      },
      "properties": {
        "NO": "43",
        "共通ID": "E2821700058111",
        "施設・場所名": "清和台小学校",
        "住所": "兵庫県川西市清和台東2-2-2",
        "指定緊急避難場所との住所同一": "1",
        "その他市町村長が必要と認める事項": null,
        "受入対象者": null,
        "備考": ""
      }
    },
    {
      "type": "Feature",
      "geometry": {
        "type": "Point",
        "coordinates": [
          135.391941,
          34.875793
        ]
      },
      "properties": {
        "NO": "44",
        "共通ID": "E2821700060121",
        "施設・場所名": "清和苑",
        "住所": "兵庫県川西市清和台東2-4-32",
        "指定緊急避難場所との住所同一": "",
        "その他市町村長が必要と認める事項": null,
        "受入対象者": "高齢者とその家族",
        "備考": ""
      }
    },
    {
      "type": "Feature",
      "geometry": {
        "type": "Point",
        "coordinates": [
          135.395588,
          34.871603
        ]
      },
      "properties": {
        "NO": "45",
        "共通ID": "E2821700062121",
        "施設・場所名": "やわらぎの里　ぷらす館",
        "住所": "兵庫県川西市清和台東4-5-1",
        "指定緊急避難場所との住所同一": "",
        "その他市町村長が必要と認める事項": null,
        "受入対象者": "高齢者とその家族",
        "備考": ""
      }
    },
    {
      "type": "Feature",
      "geometry": {
        "type": "Point",
        "coordinates": [
          135.395566,
          34.871832
        ]
      },
      "properties": {
        "NO": "46",
        "共通ID": "E2821700063121",
        "施設・場所名": "やわらぎの里　清和台",
        "住所": "兵庫県川西市清和台東4-5-26",
        "指定緊急避難場所との住所同一": "",
        "その他市町村長が必要と認める事項": null,
        "受入対象者": "高齢者とその家族",
        "備考": ""
      }
    },
    {
      "type": "Feature",
      "geometry": {
        "type": "Point",
        "coordinates": [
          135.40649,
          34.853113
        ]
      },
      "properties": {
        "NO": "47",
        "共通ID": "E2821700064121",
        "施設・場所名": "やわらぎの里　西多田",
        "住所": "兵庫県川西市西多田2-1-7",
        "指定緊急避難場所との住所同一": "",
        "その他市町村長が必要と認める事項": null,
        "受入対象者": "高齢者とその家族",
        "備考": ""
      }
    },
    {
      "type": "Feature",
      "geometry": {
        "type": "Point",
        "coordinates": [
          135.399087,
          34.851712
        ]
      },
      "properties": {
        "NO": "48",
        "共通ID": "E2821700065121",
        "施設・場所名": "湯々館",
        "住所": "兵庫県川西市西多田字平井田筋5",
        "指定緊急避難場所との住所同一": "",
        "その他市町村長が必要と認める事項": null,
        "受入対象者": "高齢者とその家族",
        "備考": ""
      }
    },
    {
      "type": "Feature",
      "geometry": {
        "type": "Point",
        "coordinates": [
          135.406631,
          34.861683
        ]
      },
      "properties": {
        "NO": "49",
        "共通ID": "E2821700066111",
        "施設・場所名": "多田小学校",
        "住所": "兵庫県川西市多田院1-4-1",
        "指定緊急避難場所との住所同一": "1",
        "その他市町村長が必要と認める事項": null,
        "受入対象者": null,
        "備考": ""
      }
    },
    {
      "type": "Feature",
      "geometry": {
        "type": "Point",
        "coordinates": [
          135.405334,
          34.861844
        ]
      },
      "properties": {
        "NO": "50",
        "共通ID": "E2821700067111",
        "施設・場所名": "多田幼稚園",
        "住所": "兵庫県川西市多田院1-4-3",
        "指定緊急避難場所との住所同一": "1",
        "その他市町村長が必要と認める事項": null,
        "受入対象者": null,
        "備考": ""
      }
    },
    {
      "type": "Feature",
      "geometry": {
        "type": "Point",
        "coordinates": [
          135.40494,
          34.86114
        ]
      },
      "properties": {
        "NO": "51",
        "共通ID": "E2821700068111",
        "施設・場所名": "多田公民館",
        "住所": "兵庫県川西市多田院1-5-1",
        "指定緊急避難場所との住所同一": "",
        "その他市町村長が必要と認める事項": null,
        "受入対象者": null,
        "備考": ""
      }
    },
    {
      "type": "Feature",
      "geometry": {
        "type": "Point",
        "coordinates": [
          135.417224,
          34.857807
        ]
      },
      "properties": {
        "NO": "52",
        "共通ID": "E2821700070111",
        "施設・場所名": "多田東会館",
        "住所": "兵庫県川西市多田桜木1-7-24",
        "指定緊急避難場所との住所同一": "1",
        "その他市町村長が必要と認める事項": null,
        "受入対象者": null,
        "備考": ""
      }
    },
    {
      "type": "Feature",
      "geometry": {
        "type": "Point",
        "coordinates": [
          135.419487,
          34.887549
        ]
      },
      "properties": {
        "NO": "53",
        "共通ID": "E2821700072111",
        "施設・場所名": "牧の台会館",
        "住所": "兵庫県川西市大和西2-5-1",
        "指定緊急避難場所との住所同一": "",
        "その他市町村長が必要と認める事項": null,
        "受入対象者": null,
        "備考": ""
      }
    },
    {
      "type": "Feature",
      "geometry": {
        "type": "Point",
        "coordinates": [
          135.421693,
          34.885925
        ]
      },
      "properties": {
        "NO": "54",
        "共通ID": "E2821700073111",
        "施設・場所名": "牧の台小学校",
        "住所": "兵庫県川西市大和東1-47-1",
        "指定緊急避難場所との住所同一": "1",
        "その他市町村長が必要と認める事項": null,
        "受入対象者": null,
        "備考": ""
      }
    },
    {
      "type": "Feature",
      "geometry": {
        "type": "Point",
        "coordinates": [
          135.421127,
          34.885097
        ]
      },
      "properties": {
        "NO": "55",
        "共通ID": "E2821700074121",
        "施設・場所名": "牧の台みどりこども園",
        "住所": "兵庫県川西市大和東1-47-5",
        "指定緊急避難場所との住所同一": "",
        "その他市町村長が必要と認める事項": null,
        "受入対象者": "妊婦、乳幼児",
        "備考": ""
      }
    },
    {
      "type": "Feature",
      "geometry": {
        "type": "Point",
        "coordinates": [
          135.420014,
          34.880445
        ]
      },
      "properties": {
        "NO": "56",
        "共通ID": "E2821700076111",
        "施設・場所名": "大阪青山大学北摂キャンパス（体育館）",
        "住所": "兵庫県川西市長尾町9-8",
        "指定緊急避難場所との住所同一": "",
        "その他市町村長が必要と認める事項": null,
        "受入対象者": null,
        "備考": ""
      }
    },
    {
      "type": "Feature",
      "geometry": {
        "type": "Point",
        "coordinates": [
          135.418745,
          34.807753
        ]
      },
      "properties": {
        "NO": "57",
        "共通ID": "E2821700077111",
        "施設・場所名": "東久代春日会館",
        "住所": "兵庫県川西市東久代1-3-17",
        "指定緊急避難場所との住所同一": "1",
        "その他市町村長が必要と認める事項": null,
        "受入対象者": null,
        "備考": ""
      }
    },
    {
      "type": "Feature",
      "geometry": {
        "type": "Point",
        "coordinates": [
          135.416303,
          34.806097
        ]
      },
      "properties": {
        "NO": "58",
        "共通ID": "E2821700078111",
        "施設・場所名": "東久代会館",
        "住所": "兵庫県川西市東久代2-10-11",
        "指定緊急避難場所との住所同一": "1",
        "その他市町村長が必要と認める事項": null,
        "受入対象者": null,
        "備考": ""
      }
    },
    {
      "type": "Feature",
      "geometry": {
        "type": "Point",
        "coordinates": [
          135.421571,
          34.863565
        ]
      },
      "properties": {
        "NO": "59",
        "共通ID": "E2821700079111",
        "施設・場所名": "多田東小学校",
        "住所": "兵庫県川西市東多田3-21-1",
        "指定緊急避難場所との住所同一": "1",
        "その他市町村長が必要と認める事項": null,
        "受入対象者": null,
        "備考": ""
      }
    },
    {
      "type": "Feature",
      "geometry": {
        "type": "Point",
        "coordinates": [
          135.401179,
          34.848003
        ]
      },
      "properties": {
        "NO": "60",
        "共通ID": "E2821700080111",
        "施設・場所名": "明峰中学校",
        "住所": "兵庫県川西市湯山台1-39-1",
        "指定緊急避難場所との住所同一": "1",
        "その他市町村長が必要と認める事項": null,
        "受入対象者": null,
        "備考": ""
      }
    },
    {
      "type": "Feature",
      "geometry": {
        "type": "Point",
        "coordinates": [
          135.394719,
          34.849439
        ]
      },
      "properties": {
        "NO": "61",
        "共通ID": "E2821700081122",
        "施設・場所名": "養護老人ホーム　満寿荘",
        "住所": "兵庫県川西市湯山台2-46",
        "指定緊急避難場所との住所同一": "",
        "その他市町村長が必要と認める事項": null,
        "受入対象者": "高齢者とその家族",
        "備考": ""
      }
    },
    {
      "type": "Feature",
      "geometry": {
        "type": "Point",
        "coordinates": [
          135.394735,
          34.84932
        ]
      },
      "properties": {
        "NO": "62",
        "共通ID": "E2821700081121",
        "施設・場所名": "ひまわり荘",
        "住所": "兵庫県川西市湯山台2-46",
        "指定緊急避難場所との住所同一": "",
        "その他市町村長が必要と認める事項": null,
        "受入対象者": "障害者とその家族",
        "備考": ""
      }
    },
    {
      "type": "Feature",
      "geometry": {
        "type": "Point",
        "coordinates": [
          135.400842,
          34.823985
        ]
      },
      "properties": {
        "NO": "63",
        "共通ID": "E2821700085111",
        "施設・場所名": "東洋食品工業短期大学（体育館）",
        "住所": "兵庫県川西市南花屋敷4-23-2",
        "指定緊急避難場所との住所同一": "1",
        "その他市町村長が必要と認める事項": null,
        "受入対象者": null,
        "備考": ""
      }
    },
    {
      "type": "Feature",
      "geometry": {
        "type": "Point",
        "coordinates": [
          135.413789,
          34.832357
        ]
      },
      "properties": {
        "NO": "64",
        "共通ID": "E2821700087111",
        "施設・場所名": "総合センター",
        "住所": "兵庫県川西市日高町1-2",
        "指定緊急避難場所との住所同一": "",
        "その他市町村長が必要と認める事項": null,
        "受入対象者": null,
        "備考": ""
      }
    },
    {
      "type": "Feature",
      "geometry": {
        "type": "Point",
        "coordinates": [
          135.412484,
          34.833306
        ]
      },
      "properties": {
        "NO": "65",
        "共通ID": "E2821700088111",
        "施設・場所名": "桜が丘小学校",
        "住所": "兵庫県川西市日高町4-1",
        "指定緊急避難場所との住所同一": "1",
        "その他市町村長が必要と認める事項": null,
        "受入対象者": null,
        "備考": ""
      }
    },
    {
      "type": "Feature",
      "geometry": {
        "type": "Point",
        "coordinates": [
          135.40428,
          34.845103
        ]
      },
      "properties": {
        "NO": "66",
        "共通ID": "E2821700089111",
        "施設・場所名": "川西明峰高等学校",
        "住所": "兵庫県川西市萩原台西2-324",
        "指定緊急避難場所との住所同一": "",
        "その他市町村長が必要と認める事項": null,
        "受入対象者": null,
        "備考": ""
      }
    },
    {
      "type": "Feature",
      "geometry": {
        "type": "Point",
        "coordinates": [
          135.409863,
          34.84772
        ]
      },
      "properties": {
        "NO": "67",
        "共通ID": "E2821700090111",
        "施設・場所名": "明峰小学校",
        "住所": "兵庫県川西市萩原台西3-242",
        "指定緊急避難場所との住所同一": "1",
        "その他市町村長が必要と認める事項": null,
        "受入対象者": null,
        "備考": ""
      }
    },
    {
      "type": "Feature",
      "geometry": {
        "type": "Point",
        "coordinates": [
          135.409212,
          34.84841
        ]
      },
      "properties": {
        "NO": "68",
        "共通ID": "E2821700091111",
        "施設・場所名": "明峰公民館",
        "住所": "兵庫県川西市萩原台西3-282-11",
        "指定緊急避難場所との住所同一": "",
        "その他市町村長が必要と認める事項": null,
        "受入対象者": null,
        "備考": ""
      }
    },
    {
      "type": "Feature",
      "geometry": {
        "type": "Point",
        "coordinates": [
          135.394567,
          34.836502
        ]
      },
      "properties": {
        "NO": "69",
        "共通ID": "E2821700092111",
        "施設・場所名": "満願寺ふれあい会館",
        "住所": "兵庫県川西市満願寺町5-22",
        "指定緊急避難場所との住所同一": "",
        "その他市町村長が必要と認める事項": null,
        "受入対象者": null,
        "備考": ""
      }
    },
    {
      "type": "Feature",
      "geometry": {
        "type": "Point",
        "coordinates": [
          135.400659,
          34.897984
        ]
      },
      "properties": {
        "NO": "70",
        "共通ID": "E2821700094111",
        "施設・場所名": "川西北陵高等学校",
        "住所": "兵庫県川西市緑が丘2-14-1",
        "指定緊急避難場所との住所同一": "",
        "その他市町村長が必要と認める事項": null,
        "受入対象者": null,
        "備考": ""
      }
    }
  ]
}